{
    "links": {
        "self": "http://www.neowsapp.com/rest/v1/neo/3760648?api_key=iIulBulltgU6a56xZRHN4H3l9WmuAYTsLGpBGhQ2"
    },
    "id": "3760648",
    "neo_reference_id": "3760648",
    "name": "(2016 TX18)",
    "designation": "2016 TX18",
    "nasa_jpl_url": "http://ssd.jpl.nasa.gov/sbdb.cgi?sstr=3760648",
    "absolute_magnitude_h": 25.4,
    "estimated_diameter": {
        "kilometers": {
            "estimated_diameter_min": 0.022108281,
            "estimated_diameter_max": 0.0494356193
        },
        "meters": {
            "estimated_diameter_min": 22.1082810359,
            "estimated_diameter_max": 49.435619262
        },
        "miles": {
            "estimated_diameter_min": 0.0137374447,
            "estimated_diameter_max": 0.0307178602
        },
        "feet": {
            "estimated_diameter_min": 72.5337327539,
            "estimated_diameter_max": 162.1903570994
        }
    },
    "is_potentially_hazardous_asteroid": false,
    "close_approach_data": [
        {
            "close_approach_date": "1933-02-28",
            "close_approach_date_full": "1933-Feb-28 01:09",
            "epoch_date_close_approach": -1162594260000,
            "relative_velocity": {
                "kilometers_per_second": "5.179428693",
                "kilometers_per_hour": "18645.9432946618",
                "miles_per_hour": "11585.8640432858"
            },
            "miss_distance": {
                "astronomical": "0.0928938807",
                "lunar": "36.1357195923",
                "kilometers": "13896726.688754109",
                "miles": "8635025.5529363442"
            },
            "orbiting_body": "Mars"
        },
        {
            "close_approach_date": "2016-04-22",
            "close_approach_date_full": "2016-Apr-22 13:21",
            "epoch_date_close_approach": 1461331260000,
            "relative_velocity": {
                "kilometers_per_second": "6.6754351665",
                "kilometers_per_hour": "24031.5665993596",
                "miles_per_hour": "14932.2809239187"
            },
            "miss_distance": {
                "astronomical": "0.3676969982",
                "lunar": "143.0341322998",
                "kilometers": "55006687.736113834",
                "miles": "34179570.8314615492"
            },
            "orbiting_body": "Earth"
        },
        {
            "close_approach_date": "2016-09-22",
            "close_approach_date_full": "2016-Sep-22 06:54",
            "epoch_date_close_approach": 1474527240000,
            "relative_velocity": {
                "kilometers_per_second": "9.274066847",
                "kilometers_per_hour": "33386.640649174",
                "miles_per_hour": "20745.1601300382"
            },
            "miss_distance": {
                "astronomical": "0.0340516185",
                "lunar": "13.2460795965",
                "kilometers": "5094049.597652595",
                "miles": "3165295.643272011"
            },
            "orbiting_body": "Earth"
        }
    ],
    "orbital_data": {
        "orbit_id": "3",
        "orbit_determination_date": "2019-12-04 07:16:16",
        "first_observation_date": "2016-10-06",
        "last_observation_date": "2016-10-10",
        "data_arc_in_days": 4,
        "observations_used": 24,
        "orbit_uncertainty": "8",
        "minimum_orbit_intersection": ".029777",
        "jupiter_tisserand_invariant": "4.859",
        "epoch_osculation": "2457668.5",
        "eccentricity": ".2976710886586972",
        "semi_major_axis": "1.331830564381045",
        "inclination": "9.858823130483392",
        "ascending_node_longitude": "5.794895492165944",
        "orbital_period": "561.3993337737005",
        "perihelion_distance": ".9353831103728125",
        "perihelion_argument": "301.1852813688249",
        "aphelion_distance": "1.728278018389278",
        "perihelion_time": "2457609.636991058880",
        "mean_anomaly": "37.7461851911373",
        "mean_motion": ".6412547688293404",
        "equinox": "J2000",
        "orbit_class": {
            "orbit_class_type": "APO",
            "orbit_class_description": "Near-Earth asteroid orbits which cross the Earth’s orbit similar to that of 1862 Apollo",
            "orbit_class_range": "a (semi-major axis) > 1.0 AU; q (perihelion) < 1.017 AU"
        }
    },
    "is_sentry_object": false
}